[{"OBJECT_NAME":"NUSAT-49 (KLARA DAN VON NEUMANN)","OBJECT_ID":"2024-149AJ","EPOCH":"2026-03-09T19:09:16.004160","MEAN_MOTION":15.30828857,"ECCENTRICITY":0.00011321,"INCLINATION":97.3807,"RA_OF_ASC_NODE":150.738,"ARG_OF_PERICENTER":286.7761,"MEAN_ANOMALY":73.3356,"EPHEMERIS_TYPE":0,"CLASSIFICATION_TYPE":"U","NORAD_CAT_ID":60500,"ELEMENT_SET_NO":999,"REV_AT_EPOCH":8693,"BSTAR":0.00043568345,"MEAN_MOTION_DOT":0.00012912,"MEAN_MOTION_DDOT":0},{"OBJECT_NAME":"STARLINK-33598","OBJECT_ID":"2025-015P","EPOCH":"2026-03-09T22:42:49.143168","MEAN_MOTION":15.30220349,"ECCENTRICITY":9.91e-5,"INCLINATION":53.161,"RA_OF_ASC_NODE":321.0328,"ARG_OF_PERICENTER":137.1806,"MEAN_ANOMALY":222.9272,"EPHEMERIS_TYPE":0,"CLASSIFICATION_TYPE":"U","NORAD_CAT_ID":62771,"ELEMENT_SET_NO":999,"REV_AT_EPOCH":6452,"BSTAR":0.0012316742,"MEAN_MOTION_DOT":0.00036321,"MEAN_MOTION_DDOT":0}]
